{"type": "FeatureCollection", "features": [ {"type": "Feature", "properties": {"norad_id": 33867, "name": "IRIDIUM 33 DEB", "group": "iridium-33-debris", "lat": -73.06125445600298, "lon": -177.77888087332553, "alt_km": 382.2731288328205, "timestamp": "2025-12-12T14:39:18.318127+00:00", "meta": {"OBJECT_NAME": "IRIDIUM 33 DEB", "OBJECT_ID": "1997-051AL", "EPOCH": "2025-12-11T23:46:57.533088", "MEAN_MOTION": 15.66357552, "ECCENTRICITY": 0.0013372, "INCLINATION": 86.3648, "RA_OF_ASC_NODE": 350.4931, "ARG_OF_PERICENTER": 89.3333, "MEAN_ANOMALY": 270.9467, "EPHEMERIS_TYPE": 0, "CLASSIFICATION_TYPE": "U", "NORAD_CAT_ID": 33867, "ELEMENT_SET_NO": 999, "REV_AT_EPOCH": 89499, "BSTAR": 0.0085222, "MEAN_MOTION_DOT": 0.00974295, "MEAN_MOTION_DDOT": 0}, "tle": {"line1": "1 33867U 97051AL  25345.99094367  .00974295  00000+0  85222-2 0  9991", "line2": "2 33867  86.3648 350.4931 0013372  89.3333 270.9467 15.66357552894993"}}, "geometry": {"type": "Point", "coordinates": [-177.77888087332553, -73.06125445600298]}}, {"type": "Feature", "properties": {"norad_id": 33870, "name": "IRIDIUM 33 DEB", "group": "iridium-33-debris", "lat": 14.434305681437383, "lon": 59.25102875309314, "alt_km": 754.8856986582878, "timestamp": "2025-12-12T14:39:18.318136+00:00", "meta": {"OBJECT_NAME": "IRIDIUM 33 DEB", "OBJECT_ID": "1997-051AP", "EPOCH": "2025-12-12T04:45:01.506240", "MEAN_MOTION": 14.45848018, "ECCENTRICITY": 0.00214302, "INCLINATION": 86.3745, "RA_OF_ASC_NODE": 58.4928, "ARG_OF_PERICENTER": 179.7274, "MEAN_ANOMALY": 208.1906, "EPHEMERIS_TYPE": 0, "CLASSIFICATION_TYPE": "U", "NORAD_CAT_ID": 33870, "ELEMENT_SET_NO": 999, "REV_AT_EPOCH": 88129, "BSTAR": 0.0012642257, "MEAN_MOTION_DOT": 4.519e-05, "MEAN_MOTION_DDOT": 0}, "tle": {"line1": "1 33870U 97051AP  25346.19793410  .00004519  00000+0  12642-2 0  9992", "line2": "2 33870  86.3745  58.4928 0021430 179.7274 208.1906 14.45848018881296"}}, "geometry": {"type": "Point", "coordinates": [59.25102875309314, 14.434305681437383]}}, {"type": "Feature", "properties": {"norad_id": 33881, "name": "IRIDIUM 33 DEB", "group": "iridium-33-debris", "lat": -58.424385833076535, "lon": -67.29933172189722, "alt_km": 691.8195878123724, "timestamp": "2025-12-12T14:39:18.318146+00:00", "meta": {"OBJECT_NAME": "IRIDIUM 33 DEB", "OBJECT_ID": "1997-051BA", "EPOCH": "2025-12-12T03:55:05.957760", "MEAN_MOTION": 14.56558764, "ECCENTRICITY": 0.00614654, "INCLINATION": 86.386, "RA_OF_ASC_NODE": 106.9929, "ARG_OF_PERICENTER": 176.5725, "MEAN_ANOMALY": 237.0343, "EPHEMERIS_TYPE": 0, "CLASSIFICATION_TYPE": "U", "NORAD_CAT_ID": 33881, "ELEMENT_SET_NO": 999, "REV_AT_EPOCH": 87492, "BSTAR": 0.0031107263, "MEAN_MOTION_DOT": 0.00014247, "MEAN_MOTION_DDOT": 0}, "tle": {"line1": "1 33881U 97051BA  25346.16326340  .00014247  00000+0  31107-2 0  9991", "line2": "2 33881  86.3860 106.9929 0061465 176.5725 237.0343 14.56558764874920"}}, "geometry": {"type": "Point", "coordinates": [-67.29933172189722, -58.424385833076535]}}, {"type": "Feature", "properties": {"norad_id": 33884, "name": "IRIDIUM 33 DEB", "group": "iridium-33-debris", "lat": 5.024352664559259, "lon": -170.4434744647377, "alt_km": 645.7960479587682, "timestamp": "2025-12-12T14:39:18.318155+00:00", "meta": {"OBJECT_NAME": "IRIDIUM 33 DEB", "OBJECT_ID": "1997-051BD", "EPOCH": "2025-12-12T01:07:10.833024", "MEAN_MOTION": 14.77408265, "ECCENTRICITY": 0.00097443, "INCLINATION": 86.3699, "RA_OF_ASC_NODE": 10.1308, "ARG_OF_PERICENTER": 326.4674, "MEAN_ANOMALY": 90.7894, "EPHEMERIS_TYPE": 0, "CLASSIFICATION_TYPE": "U", "NORAD_CAT_ID": 33884, "ELEMENT_SET_NO": 999, "REV_AT_EPOCH": 88837, "BSTAR": 0.0020846826, "MEAN_MOTION_DOT": 0.00014881, "MEAN_MOTION_DDOT": 0}, "tle": {"line1": "1 33884U 97051BD  25346.04665316  .00014881  00000+0  20847-2 0  9993", "line2": "2 33884  86.3699  10.1308 0009744 326.4674  90.7894 14.77408265888373"}}, "geometry": {"type": "Point", "coordinates": [-170.4434744647377, 5.024352664559259]}}, {"type": "Feature", "properties": {"norad_id": 33886, "name": "IRIDIUM 33 DEB", "group": "iridium-33-debris", "lat": 60.0198187391093, "lon": -119.01148399367382, "alt_km": 770.600617085729, "timestamp": "2025-12-12T14:39:18.318165+00:00", "meta": {"OBJECT_NAME": "IRIDIUM 33 DEB", "OBJECT_ID": "1997-051BF", "EPOCH": "2025-12-12T07:43:58.791936", "MEAN_MOTION": 14.36051386, "ECCENTRICITY": 0.00122783, "INCLINATION": 86.3831, "RA_OF_ASC_NODE": 67.4046, "ARG_OF_PERICENTER": 243.5725, "MEAN_ANOMALY": 186.1446, "EPHEMERIS_TYPE": 0, "CLASSIFICATION_TYPE": "U", "NORAD_CAT_ID": 33886, "ELEMENT_SET_NO": 999, "REV_AT_EPOCH": 88046, "BSTAR": 0.00031053404, "MEAN_MOTION_DOT": 9.23e-06, "MEAN_MOTION_DDOT": 0}, "tle": {"line1": "1 33886U 97051BF  25346.32220824  .00000923  00000+0  31053-3 0  9991", "line2": "2 33886  86.3831  67.4046 0012278 243.5725 186.1446 14.36051386880467"}}, "geometry": {"type": "Point", "coordinates": [-119.01148399367382, 60.0198187391093]}}, {"type": "Feature", "properties": {"norad_id": 33887, "name": "IRIDIUM 33 DEB", "group": "iridium-33-debris", "lat": 55.31557955710794, "lon": 8.806766473824508, "alt_km": 765.6363254375547, "timestamp": "2025-12-12T14:39:18.318174+00:00", "meta": {"OBJECT_NAME": "IRIDIUM 33 DEB", "OBJECT_ID": "1997-051BG", "EPOCH": "2025-12-12T07:48:45.874944", "MEAN_MOTION": 14.37220455, "ECCENTRICITY": 0.00044071, "INCLINATION": 86.3045, "RA_OF_ASC_NODE": 3.5708, "ARG_OF_PERICENTER": 228.4515, "MEAN_ANOMALY": 152.9462, "EPHEMERIS_TYPE": 0, "CLASSIFICATION_TYPE": "U", "NORAD_CAT_ID": 33887, "ELEMENT_SET_NO": 999, "REV_AT_EPOCH": 88159, "BSTAR": 0.000221312, "MEAN_MOTION_DOT": 6.78e-06, "MEAN_MOTION_DDOT": 0}, "tle": {"line1": "1 33887U 97051BG  25346.32553096  .00000678  00000+0  22131-3 0  9996", "line2": "2 33887  86.3045   3.5708 0004407 228.4515 152.9462 14.37220455881595"}}, "geometry": {"type": "Point", "coordinates": [8.806766473824508, 55.31557955710794]}}, {"type": "Feature", "properties": {"norad_id": 33953, "name": "IRIDIUM 33 DEB", "group": "iridium-33-debris", "lat": -81.90695327572921, "lon": -99.7623102450007, "alt_km": 727.9826735806018, "timestamp": "2025-12-12T14:39:18.318184+00:00", "meta": {"OBJECT_NAME": "IRIDIUM 33 DEB", "OBJECT_ID": "1997-051BN", "EPOCH": "2025-12-12T05:28:32.173824", "MEAN_MOTION": 14.55319488, "ECCENTRICITY": 0.0018409, "INCLINATION": 86.3843, "RA_OF_ASC_NODE": 54.0012, "ARG_OF_PERICENTER": 104.433, "MEAN_ANOMALY": 315.6568, "EPHEMERIS_TYPE": 0, "CLASSIFICATION_TYPE": "U", "NORAD_CAT_ID": 33953, "ELEMENT_SET_NO": 999, "REV_AT_EPOCH": 88296, "BSTAR": 0.0019554392, "MEAN_MOTION_DOT": 8.519e-05, "MEAN_MOTION_DDOT": 0}, "tle": {"line1": "1 33953U 97051BN  25346.22815016  .00008519  00000+0  19554-2 0  9998", "line2": "2 33953  86.3843  54.0012 0018409 104.4330 315.6568 14.55319488882961"}}, "geometry": {"type": "Point", "coordinates": [-99.7623102450007, -81.90695327572921]}}, {"type": "Feature", "properties": {"norad_id": 33960, "name": "IRIDIUM 33 DEB", "group": "iridium-33-debris", "lat": 52.77512753971935, "lon": -65.47607856932149, "alt_km": 603.0120147297712, "timestamp": "2025-12-12T14:39:18.318193+00:00", "meta": {"OBJECT_NAME": "IRIDIUM 33 DEB", "OBJECT_ID": "1997-051BV", "EPOCH": "2025-12-11T20:52:13.312128", "MEAN_MOTION": 14.85121731, "ECCENTRICITY": 0.0007473, "INCLINATION": 86.253, "RA_OF_ASC_NODE": 289.9247, "ARG_OF_PERICENTER": 63.6989, "MEAN_ANOMALY": 349.9861, "EPHEMERIS_TYPE": 0, "CLASSIFICATION_TYPE": "U", "NORAD_CAT_ID": 33960, "ELEMENT_SET_NO": 999, "REV_AT_EPOCH": 88854, "BSTAR": 0.0046476, "MEAN_MOTION_DOT": 0.00039972, "MEAN_MOTION_DDOT": 0}, "tle": {"line1": "1 33960U 97051BV  25345.86959852  .00039972  00000+0  46476-2 0  9992", "line2": "2 33960  86.2530 289.9247 0007473  63.6989 349.9861 14.85121731888546"}}, "geometry": {"type": "Point", "coordinates": [-65.47607856932149, 52.77512753971935]}}, {"type": "Feature", "properties": {"norad_id": 33966, "name": "IRIDIUM 33 DEB", "group": "iridium-33-debris", "lat": 31.159741613781982, "lon": 48.26889215893095, "alt_km": 730.1645179605503, "timestamp": "2025-12-12T14:39:18.318202+00:00", "meta": {"OBJECT_NAME": "IRIDIUM 33 DEB", "OBJECT_ID": "1997-051CB", "EPOCH": "2025-12-12T04:49:14.454336", "MEAN_MOTION": 14.49591361, "ECCENTRICITY": 0.00073539, "INCLINATION": 86.3923, "RA_OF_ASC_NODE": 46.2584, "ARG_OF_PERICENTER": 189.8927, "MEAN_ANOMALY": 224.4541, "EPHEMERIS_TYPE": 0, "CLASSIFICATION_TYPE": "U", "NORAD_CAT_ID": 33966, "ELEMENT_SET_NO": 999, "REV_AT_EPOCH": 88434, "BSTAR": 0.00087368937, "MEAN_MOTION_DOT": 3.373e-05, "MEAN_MOTION_DDOT": 0}, "tle": {"line1": "1 33966U 97051CB  25346.20086174  .00003373  00000+0  87369-3 0  9998", "line2": "2 33966  86.3923  46.2584 0007353 189.8927 224.4541 14.49591361884343"}}, "geometry": {"type": "Point", "coordinates": [48.26889215893095, 31.159741613781982]}}, {"type": "Feature", "properties": {"norad_id": 34071, "name": "IRIDIUM 33 DEB", "group": "iridium-33-debris", "lat": 81.39582049908918, "lon": 172.90273528868053, "alt_km": 713.0980352880761, "timestamp": "2025-12-12T14:39:18.318211+00:00", "meta": {"OBJECT_NAME": "IRIDIUM 33 DEB", "OBJECT_ID": "1997-051CE", "EPOCH": "2025-12-12T02:36:29.156256", "MEAN_MOTION": 14.49460742, "ECCENTRICITY": 0.00099287, "INCLINATION": 86.346, "RA_OF_ASC_NODE": 18.1025, "ARG_OF_PERICENTER": 109.4154, "MEAN_ANOMALY": 250.8124, "EPHEMERIS_TYPE": 0, "CLASSIFICATION_TYPE": "U", "NORAD_CAT_ID": 34071, "ELEMENT_SET_NO": 999, "REV_AT_EPOCH": 88325, "BSTAR": 0.000960108, "MEAN_MOTION_DOT": 3.696e-05, "MEAN_MOTION_DDOT": 0}, "tle": {"line1": "1 34071U 97051CE  25346.10867079  .00003696  00000+0  96011-3 0  9998", "line2": "2 34071  86.3460  18.1025 0009928 109.4154 250.8124 14.49460742883252"}}, "geometry": {"type": "Point", "coordinates": [172.90273528868053, 81.39582049908918]}}]}